IRIDIUM 150             
1 43257U 18030J   24123.88036071  .00000286  00000+0  95230-4 0  9996
2 43257  86.3960 254.4437 0001826  92.9802 267.1603 14.34215740319055
IRIDIUM 143             
1 43258U 18030K   24124.41948541  .00000452  00000+0  15419-3 0  9996
2 43258  86.3964 254.2805 0001659  97.0665 263.0719 14.34218290319072
IRIDIUM 161             
1 43478U 18047C   24123.84222289  .00000531  00000+0  15180-3 0  9991
2 43478  86.4510  52.4933 0002391  88.0368 272.1107 14.43282307313300
IRIDIUM 152             
1 43479U 18047D   24124.18289885  .00000462  00000+0  15777-3 0  9990
2 43479  86.3984  52.2105 0002215  84.0791 276.0657 14.34218173311418
IRIDIUM 147             
1 43480U 18047E   24123.56131602  .00000249  00000+0  81817-4 0  9998
2 43480  86.3985  52.4618 0002479  85.1413 275.0066 14.34213119311314
IRIDIUM 110             
1 43481U 18047F   24123.84673601  .00000393  00000+0  13342-3 0  9997
2 43481  86.3986  52.4140 0002717  78.7398 281.4103 14.34215282311340
IRIDIUM 162             
1 43482U 18047G   24124.52923341  .00000528  00000+0  15086-3 0  9990
2 43482  86.4511  52.1069 0002407  86.8672 273.2804 14.43276704313394
IRIDIUM 160             
1 43569U 18061A   24123.79258475  .00000340  00000+0  11420-3 0  9999
2 43569  86.4016  20.8189 0002518  90.6548 269.4937 14.34214347302233
